NORAD_CAT_ID,OBJECT_NAME,OBJECT_TYPE,EPOCH,MEAN_MOTION,ECCENTRICITY,INCLINATION,RA_OF_ASC_NODE,ARG_OF_PERICENTER,MEAN_ANOMALY,BSTAR,MEAN_MOTION_DOT,MEAN_MOTION_DDOT,TLE_LINE0,TLE_LINE1,TLE_LINE2,SEMIMAJOR_AXIS,PERIOD,APOGEE,PERIGEE,DECAYED
49430.0,STARLINK-3138,PAYLOAD,2024-03-16 14:49:46,15.08834891,0.0001822,53.2174,235.3923,63.5203,296.5976,2.5591e-05,1.19e-06,0.0,0 STARLINK-3138,1 49430U 21104Y   24076.61789779  .00000119  00000-0  25591-4 0  9998,2 49430  53.2174 235.3923 0001822  63.5203 296.5976 15.08834891129477,6917.896,95.438,541.021,538.501,0.0
49430.0,STARLINK-3138,PAYLOAD,2024-03-16 19:35:55,15.08843498,0.0001577,53.2175,234.5012,72.1525,287.9639,0.00014018,1.944e-05,0.0,0 STARLINK-3138,1 49430U 21104Y   24076.81661332  .00001944  00000-0  14018-3 0  9992,2 49430  53.2175 234.5012 0001577  72.1525 287.9639 15.08843498129505,6917.87,95.437,540.826,538.644,0.0
49430.0,STARLINK-3138,PAYLOAD,2024-03-17 09:54:24,15.08831286,0.0001393,53.2175,231.8267,90.7097,269.4055,8.0376e-05,9.91e-06,0.0,0 STARLINK-3138,1 49430U 21104Y   24077.41278302  .00000991  00000-0  80376-4 0  9992,2 49430  53.2175 231.8267 0001393  90.7097 269.4055 15.08831286130672,6917.907,95.438,540.736,538.808,0.0
49430.0,STARLINK-3138,PAYLOAD,2024-03-17 14:40:33,15.08840882,0.0001494,53.2179,230.9347,89.2279,270.8884,0.00015925,2.247e-05,0.0,0 STARLINK-3138,1 49430U 21104Y   24077.61149538  .00002247  00000-0  15925-3 0  9995,2 49430  53.2179 230.9347 0001494  89.2279 270.8884 15.08840882129623,6917.878,95.437,540.776,538.709,0.0
49430.0,STARLINK-3138,PAYLOAD,2024-03-17 17:51:19,15.08837744,0.000163,53.2176,230.3434,69.8306,290.2861,0.00014918,2.087e-05,0.0,0 STARLINK-3138,1 49430U 21104Y   24077.74397917  .00002087  00000-0  14918-3 0  9998,2 49430  53.2176 230.3434 0001630  69.8306 290.2861 15.08837744129644,6917.887,95.438,540.88,538.625,0.0
49430.0,STARLINK-3138,PAYLOAD,2024-03-18 19:17:29,15.08847993,0.0001443,53.2174,225.5853,76.1729,283.9424,0.00011166,1.49e-05,0.0,0 STARLINK-3138,1 49430U 21104Y   24078.80381416  .00001490  00000-0  11166-3 0  9992,2 49430  53.2174 225.5853 0001443  76.1729 283.9424 15.08847993130884,6917.856,95.437,540.719,538.723,0.0
49430.0,STARLINK-3138,PAYLOAD,2024-03-19 09:35:58,15.08840209,0.0001331,53.2164,222.907,82.4331,277.6812,1.7451e-05,-1e-07,0.0,0 STARLINK-3138,1 49430U 21104Y   24079.39997880 -.00000010  00000-0  17451-4 0  9997,2 49430  53.2164 222.9070 0001331  82.4331 277.6812 15.08840209129893,6917.88,95.438,540.666,538.824,0.0
49430.0,STARLINK-3138,PAYLOAD,2024-03-19 12:46:44,15.08844723,0.0001322,53.2171,222.3138,84.9728,275.1415,7.5177e-05,9.09e-06,0.0,0 STARLINK-3138,1 49430U 21104Y   24079.53245660  .00000909  00000-0  75177-4 0  9990,2 49430  53.2171 222.3138 0001322  84.9728 275.1415 15.08844723130997,6917.866,95.437,540.645,538.816,0.0
49430.0,STARLINK-3138,PAYLOAD,2024-03-20 14:12:55,15.08834191,0.0001554,53.2163,217.5575,98.4792,261.6376,6.5251e-05,7.5e-06,0.0,0 STARLINK-3138,1 49430U 21104Y   24080.59230375  .00000750  00000-0  65251-4 0  9991,2 49430  53.2163 217.5575 0001554  98.4792 261.6376 15.08834191130070,6917.898,95.438,540.838,538.688,0.0
49430.0,STARLINK-3138,PAYLOAD,2024-03-20 15:48:18,15.08835378,0.0001708,53.2161,217.2584,106.8815,253.2364,7.1135e-05,8.44e-06,0.0,0 STARLINK-3138,1 49430U 21104Y   24080.65854319  .00000844  00000-0  71135-4 0  9990,2 49430  53.2161 217.2584 0001708 106.8815 253.2364 15.08835378131169,6917.895,95.438,540.941,538.578,0.0
49430.0,STARLINK-3138,PAYLOAD,2024-03-21 14:03:41,15.08847805,0.0001492,53.2162,213.0935,92.4703,267.646,0.00015766,2.223e-05,0.0,0 STARLINK-3138,1 49430U 21104Y   24081.58590031  .00002223  00000-0  15766-3 0  9991,2 49430  53.2162 213.0935 0001492  92.4703 267.6460 15.08847805130220,6917.857,95.437,540.754,538.689,0.0
49430.0,STARLINK-3138,PAYLOAD,2024-03-21 15:39:04,15.08848927,0.0001495,53.2165,212.8019,96.9021,263.2141,0.00028066,4.183e-05,0.0,0 STARLINK-3138,1 49430U 21104Y   24081.65214031  .00004183  00000-0  28066-3 0  9996,2 49430  53.2165 212.8019 0001495  96.9021 263.2141 15.08848927131313,6917.853,95.437,540.752,538.684,0.0
49430.0,STARLINK-3138,PAYLOAD,2024-03-22 13:54:28,15.08859659,0.0001298,53.2157,208.6348,88.5938,271.5203,0.00046524,7.128e-05,0.0,0 STARLINK-3138,1 49430U 21104Y   24082.57949456  .00007128  00000-0  46524-3 0  9995,2 49430  53.2157 208.6348 0001298  88.5938 271.5203 15.08859659130377,6917.82,95.436,540.583,538.787,0.0
49430.0,STARLINK-3138,PAYLOAD,2024-03-23 13:45:15,15.08840848,0.0001549,53.2161,204.1755,57.8919,302.2223,-2.4715e-05,-6.81e-06,0.0,0 STARLINK-3138,1 49430U 21104Y   24083.57309906 -.00000681  00000-0 -24715-4 0  9994,2 49430  53.2161 204.1755 0001549  57.8919 302.2223 15.08840848131603,6917.878,95.438,540.814,538.671,0.0
49430.0,STARLINK-3138,PAYLOAD,2024-03-23 15:20:38,15.08841231,0.0001551,53.2158,203.8779,56.4277,303.6863,-2.7768e-05,-7.3e-06,0.0,0 STARLINK-3138,1 49430U 21104Y   24083.63933948 -.00000730  00000-0 -27768-4 0  9996,2 49430  53.2158 203.8779 0001551  56.4277 303.6863 15.08841231130539,6917.877,95.437,540.815,538.669,0.0
49430.0,STARLINK-3138,PAYLOAD,2024-03-24 13:36:01,15.08868976,0.0001419,53.2167,199.7121,93.7185,266.397,0.00062198,9.632e-05,0.0,0 STARLINK-3138,1 49430U 21104Y   24084.56668819  .00009632  00000-0  62198-3 0  9994,2 49430  53.2167 199.7121 0001419  93.7185 266.3970 15.08868976131752,6917.792,95.436,540.638,538.675,0.0
49430.0,STARLINK-3138,PAYLOAD,2024-03-24 16:46:47,15.08873034,0.0001459,53.2166,199.1173,77.5457,282.5698,0.00071296,0.00011087,0.0,0 STARLINK-3138,1 49430U 21104Y   24084.69916645  .00011087  00000-0  71296-3 0  9997,2 49430  53.2166 199.1173 0001459  77.5457 282.5698 15.08873034130698,6917.779,95.435,540.654,538.635,0.0
49430.0,STARLINK-3138,PAYLOAD,2024-03-25 00:43:44,15.08848529,0.0001009,53.2164,197.6297,68.7096,291.4003,0.00025025,3.698e-05,0.0,0 STARLINK-3138,1 49430U 21104Y   24085.03037417  .00003698  00000-0  25025-3 0  9995,2 49430  53.2164 197.6297 0001009  68.7096 291.4003 15.08848529131824,6917.854,95.437,540.417,539.021,0.0
49430.0,STARLINK-3138,PAYLOAD,2024-03-25 15:02:12,15.08860212,0.0001493,53.2164,194.9537,82.9215,277.1946,0.00043771,6.689e-05,0.0,0 STARLINK-3138,1 49430U 21104Y   24085.62653021  .00006689  00000-0  43771-3 0  9996,2 49430  53.2164 194.9537 0001493  82.9215 277.1946 15.08860212130839,6917.819,95.436,540.716,538.651,0.0
49430.0,STARLINK-3138,PAYLOAD,2024-03-26 13:17:38,15.08822433,0.0001781,53.2171,190.7907,86.7242,273.3954,-0.00034099,-5.708e-05,0.0,0 STARLINK-3138,1 49430U 21104Y   24086.55391290 -.00005708  00000-0 -34099-3 0  9992,2 49430  53.2171 190.7907 0001781  86.7242 273.3954 15.08822433132050,6917.934,95.439,541.031,538.567,0.0
49430.0,STARLINK-3138,PAYLOAD,2024-03-27 00:25:20,15.08834483,0.0001845,53.2191,188.7091,85.7271,274.3932,-0.00012083,-2.21e-05,0.0,0 STARLINK-3138,1 49430U 21104Y   24087.01759386 -.00002210  00000-0 -12083-3 0  9992,2 49430  53.2191 188.7091 0001845  85.7271 274.3932 15.08834483132128,6917.897,95.438,541.039,538.486,0.0
49430.0,STARLINK-3138,PAYLOAD,2024-03-27 13:08:24,15.08851126,0.0001296,53.217,186.3303,85.0416,275.0724,0.00062694,9.707e-05,0.0,0 STARLINK-3138,1 49430U 21104Y   24087.54750812  .00009707  00000-0  62694-3 0  9994,2 49430  53.2170 186.3303 0001296  85.0416 275.0724 15.08851126132208,6917.846,95.437,540.608,538.815,0.0
49430.0,STARLINK-3138,PAYLOAD,2024-03-27 16:19:10,15.0886207,0.0001538,53.2163,185.7353,83.6383,276.4785,0.00039651,6.032e-05,0.0,0 STARLINK-3138,1 49430U 21104Y   24087.67997960  .00006032  00000-0  39651-3 0  9990,2 49430  53.2163 185.7353 0001538  83.6383 276.4785 15.08862070132228,6917.813,95.436,540.742,538.614,0.0
49430.0,STARLINK-3138,PAYLOAD,2024-03-28 12:59:12,15.08843271,0.0001685,53.2186,181.8705,84.7747,275.3437,0.00028822,4.302e-05,0.0,0 STARLINK-3138,1 49430U 21104Y   24088.54111446  .00004302  00000-0  28822-3 0  9990,2 49430  53.2186 181.8705 0001685  84.7747 275.3437 15.08843271132358,6917.87,95.437,540.901,538.57,0.0
49430.0,STARLINK-3138,PAYLOAD,2024-03-29 12:49:58,15.08855076,0.0001478,53.216,177.4123,84.5025,275.6136,0.00015755,2.221e-05,0.0,0 STARLINK-3138,1 49430U 21104Y   24089.53470591  .00002221  00000-0  15755-3 0  9998,2 49430  53.2160 177.4123 0001478  84.5025 275.6136 15.08855076131424,6917.834,95.437,540.722,538.677,0.0
49430.0,STARLINK-3138,PAYLOAD,2024-03-29 22:22:17,15.08845594,0.0001463,53.2162,175.6274,81.5781,278.5377,-5.8612e-05,-1.221e-05,0.0,0 STARLINK-3138,1 49430U 21104Y   24089.93214869 -.00001221  00000-0 -58612-4 0  9997,2 49430  53.2162 175.6274 0001463  81.5781 278.5377 15.08845594131482,6917.863,95.437,540.74,538.716,0.0
49430.0,STARLINK-3138,PAYLOAD,2024-03-30 12:40:46,15.08833789,0.0001646,53.2173,172.9546,98.8729,261.245,2.1902e-05,6e-07,0.0,0 STARLINK-3138,1 49430U 21104Y   24090.52831776  .00000060  00000-0  21902-4 0  9996,2 49430  53.2173 172.9546 0001646  98.8729 261.2450 15.08833789132656,6917.899,95.438,540.903,538.626,0.0
49430.0,STARLINK-3138,PAYLOAD,2024-03-30 22:13:05,15.08841036,0.000156,53.217,171.1678,93.567,266.55,8.1701e-05,1.013e-05,0.0,0 STARLINK-3138,1 49430U 21104Y   24090.92575404  .00001013  00000-0  81701-4 0  9995,2 49430  53.2170 171.1678 0001560  93.5670 266.5500 15.08841036131637,6917.877,95.437,540.821,538.663,0.0
49430.0,STARLINK-3138,PAYLOAD,2024-03-31 12:31:33,15.08847687,0.0001529,53.2165,168.4916,96.1535,263.9632,0.00017819,2.55e-05,0.0,0 STARLINK-3138,1 49430U 21104Y   24091.52191160  .00002550  00000-0  17819-3 0  9990,2 49430  53.2165 168.4916 0001529  96.1535 263.9632 15.08847687132804,6917.857,95.437,540.78,538.664,0.0
49430.0,STARLINK-3138,PAYLOAD,2024-03-31 22:03:52,15.0884287,0.000151,53.2154,166.7073,78.7024,281.4138,0.000192,2.769e-05,0.0,0 STARLINK-3138,1 49430U 21104Y   24091.91935331  .00002769  00000-0  19200-3 0  9997,2 49430  53.2154 166.7073 0001510  78.7024 281.4138 15.08842870131787,6917.872,95.437,540.781,538.692,0.0
